{"fetched_at":"2026-03-29T16:36:15Z","count":15609,"tles":[{"name":"STARLINK-5893","line1":"1 55952U 23037AQ  26087.73828225  .00001219  00000+0  10989-3 0  9993","line2":"2 55952  69.9996 216.5409 0002939 267.5550  92.5273 14.98336690167322","category":"Starlink"}]}