{
  "norad_id": 55952,
  "name": "STARLINK-5893",
  "history": [
    {
      "epoch": "2026-03-28T17:43:07.586400",
      "apogee_km": 574.0780668638063,
      "perigee_km": 569.9923386326982,
      "latitude_deg": -69.99647466252627,
      "longitude_deg": -153.92490400001407,
      "semi_major_axis_km": 6950.172202748252,
      "eccentricity": 0.00029393,
      "inclination_deg": 69.9996,
      "raan_deg": 216.5409,
      "arg_perigee_deg": 267.555,
      "mean_anomaly_deg": 92.5273,
      "mean_motion_rev_day": 14.9833669
    }
  ]
}